NORAD_CAT_ID,OBJECT_NAME,OBJECT_TYPE,EPOCH,MEAN_MOTION,ECCENTRICITY,INCLINATION,RA_OF_ASC_NODE,ARG_OF_PERICENTER,MEAN_ANOMALY,BSTAR,MEAN_MOTION_DOT,MEAN_MOTION_DDOT,TLE_LINE0,TLE_LINE1,TLE_LINE2,SEMIMAJOR_AXIS,PERIOD,APOGEE,PERIGEE,DECAYED
55744.0,STARLINK-5601,PAYLOAD,2024-08-14 19:17:32,14.98325449,0.0003113,69.9979,246.5264,269.4963,90.584,-6.1961e-05,-8.32e-06,0.0,0 STARLINK-5601,1 55744U 23028D   24227.80384723 -.00000832  00000-0 -61961-4 0  9994,2 55744  69.9979 246.5264 0003113 269.4963  90.5840 14.98325449 80375,6950.207,96.107,574.236,569.908,0.0
55744.0,STARLINK-5601,PAYLOAD,2024-08-15 04:54:20,14.98325246,0.0003125,69.9977,245.5162,270.9211,89.159,3.4611e-05,3.2e-06,0.0,0 STARLINK-5601,1 55744U 23028D   24228.20440650  .00000320  00000-0  34611-4 0  9993,2 55744  69.9977 245.5162 0003125 270.9211  89.1590 14.98325246 80433,6950.208,96.107,574.245,569.901,0.0
55744.0,STARLINK-5601,PAYLOAD,2024-08-15 09:42:44,14.9832703,0.0003121,69.9977,245.0113,271.0201,89.06,5.289e-05,5.38e-06,0.0,0 STARLINK-5601,1 55744U 23028D   24228.40468554  .00000538  00000-0  52890-4 0  9998,2 55744  69.9977 245.0113 0003121 271.0201  89.0600 14.98327030 80468,6950.202,96.107,574.236,569.898,0.0
55744.0,STARLINK-5601,PAYLOAD,2024-08-16 04:56:21,14.98328488,0.0003146,69.9976,242.9912,271.2953,88.7846,0.00019414,2.224e-05,0.0,0 STARLINK-5601,1 55744U 23028D   24229.20580298  .00002224  00000-0  19414-3 0  9995,2 55744  69.9976 242.9912 0003146 271.2953  88.7846 14.98328488 80582,6950.198,96.107,574.249,569.876,0.0
55744.0,STARLINK-5601,PAYLOAD,2024-08-16 09:44:45,14.98332809,0.0003139,69.9977,242.4862,271.4009,88.679,0.00021951,2.527e-05,0.0,0 STARLINK-5601,1 55744U 23028D   24229.40608002  .00002527  00000-0  21951-3 0  9996,2 55744  69.9977 242.4862 0003139 271.4009  88.6790 14.98332809 80611,6950.184,96.107,574.231,569.868,0.0
55744.0,STARLINK-5601,PAYLOAD,2024-08-17 04:58:22,14.98333805,0.0003099,69.9979,240.4663,271.2368,88.8435,9.7729e-05,1.073e-05,0.0,0 STARLINK-5601,1 55744U 23028D   24230.20720154  .00001073  00000-0  97729-4 0  9991,2 55744  69.9979 240.4663 0003099 271.2368  88.8435 14.98333805 80739,6950.181,96.107,574.2,569.892,0.0
55744.0,STARLINK-5601,PAYLOAD,2024-08-17 08:10:38,14.98334459,0.0003042,69.9982,240.1301,269.8786,90.2024,0.00010204,1.125e-05,0.0,0 STARLINK-5601,1 55744U 23028D   24230.34072067  .00001125  00000-0  10204-3 0  9999,2 55744  69.9982 240.1301 0003042 269.8786  90.2024 14.98334459 80753,6950.179,96.107,574.158,569.93,0.0
55744.0,STARLINK-5601,PAYLOAD,2024-08-18 05:00:22,14.9833536,0.0002934,69.9985,237.9418,266.1469,93.9354,-1.2289e-05,-2.4e-06,0.0,0 STARLINK-5601,1 55744U 23028D   24231.20859908 -.00000240  00000-0 -12289-4 0  9997,2 55744  69.9985 237.9418 0002934 266.1469  93.9354 14.98335360 80888,6950.176,96.107,574.08,570.002,0.0
55744.0,STARLINK-5601,PAYLOAD,2024-08-18 09:48:46,14.98336684,0.0002911,69.9986,237.4368,265.4887,94.594,1.8018e-06,-7.2e-07,0.0,0 STARLINK-5601,1 55744U 23028D   24231.40887687 -.00000072  00000-0  18018-5 0  9993,2 55744  69.9986 237.4368 0002911 265.4887  94.5940 14.98336684 80911,6950.172,96.107,574.06,570.014,0.0
55744.0,STARLINK-5601,PAYLOAD,2024-08-19 09:50:48,14.98327754,0.0002914,69.9986,234.9117,267.711,92.3715,-3.8394e-05,-5.51e-06,0.0,0 STARLINK-5601,1 55744U 23028D   24232.41028191 -.00000551  00000-0 -38394-4 0  9993,2 55744  69.9986 234.9117 0002914 267.7110  92.3715 14.98327754 81063,6950.2,96.107,574.09,570.04,0.0
55744.0,STARLINK-5601,PAYLOAD,2024-08-20 05:04:24,14.98332707,0.0003049,69.9982,232.891,268.0414,92.0396,4.2875e-05,4.19e-06,0.0,0 STARLINK-5601,1 55744U 23028D   24233.21139585  .00000419  00000-0  42875-4 0  9992,2 55744  69.9982 232.8910 0003049 268.0414  92.0396 14.98332707 81187,6950.185,96.107,574.169,569.93,0.0
55744.0,STARLINK-5601,PAYLOAD,2024-08-20 09:52:48,14.9833627,0.000301,69.9984,232.3863,267.9343,92.1471,8.2493e-05,8.92e-06,0.0,0 STARLINK-5601,1 55744U 23028D   24233.41167209  .00000892  00000-0  82493-4 0  9993,2 55744  69.9984 232.3863 0003010 267.9343  92.1471 14.98336270 81216,6950.174,96.107,574.131,569.946,0.0
55744.0,STARLINK-5601,PAYLOAD,2024-08-21 05:06:25,14.98328898,0.0002976,69.9987,230.3666,267.7173,92.3645,7.438e-05,7.95e-06,0.0,0 STARLINK-5601,1 55744U 23028D   24234.21279647  .00000795  00000-0  74380-4 0  9990,2 55744  69.9987 230.3666 0002976 267.7173  92.3645 14.98328898 81332,6950.196,96.107,574.13,569.993,0.0
55744.0,STARLINK-5601,PAYLOAD,2024-08-21 09:54:49,14.98330004,0.0002963,69.9988,229.8618,267.6803,92.4017,8.2657e-05,8.93e-06,0.0,0 STARLINK-5601,1 55744U 23028D   24234.41307570  .00000893  00000-0  82657-4 0  9994,2 55744  69.9988 229.8618 0002963 267.6803  92.4017 14.98330004 81367,6950.193,96.107,574.117,569.999,0.0
55744.0,STARLINK-5601,PAYLOAD,2024-08-22 05:08:26,14.98332004,0.0002877,69.9993,227.8433,266.1751,93.9079,-1.2203e-05,-2.39e-06,0.0,0 STARLINK-5601,1 55744U 23028D   24235.21419652 -.00000239  00000-0 -12203-4 0  9994,2 55744  69.9993 227.8433 0002877 266.1751  93.9079 14.98332004 81485,6950.187,96.107,574.051,570.052,0.0
